$$SOE
2459580.500000000, A.D. 2022-Jan-01 00:00:00.0000, 3.814833196524624E+05, 4.259750692593030E+08, -7.508058588642581E+07,
2459587.500000000, A.D. 2022-Jan-08 00:00:00.0000, -1.015666540950968E+07, 4.262679605493740E+08, -7.349413426489222E+07,
2459594.500000000, A.D. 2022-Jan-15 00:00:00.0000, -2.068877231787166E+07, 4.263053788048183E+08, -7.186363446658607E+07,
2459601.500000000, A.D. 2022-Jan-22 00:00:00.0000, -3.120853364106297E+07, 4.260875459298882E+08, -7.019010543350075E+07,
2459608.500000000, A.D. 2022-Jan-29 00:00:00.0000, -4.170966489335574E+07, 4.256148443051918E+08, -6.847459073833366E+07,
2459615.500000000, A.D. 2022-Feb-05 00:00:00.0000, -5.218590717984809E+07, 4.248878152495463E+08, -6.671815764318050E+07,
2459622.500000000, A.D. 2022-Feb-12 00:00:00.0000, -6.263103129148861E+07, 4.239071563008850E+08, -6.492189643126932E+07,
2459629.500000000, A.D. 2022-Feb-19 00:00:00.0000, -7.303884090277639E+07, 4.226737196913802E+08, -6.308691969905342E+07,
2459636.500000000, A.D. 2022-Feb-26 00:00:00.0000, -8.340317617771733E+07, 4.211885112958950E+08, -6.121436154838206E+07,
2459643.500000000, A.D. 2022-Mar-05 00:00:00.0000, -9.371791762095672E+07, 4.194526894377202E+08, -5.930537674417847E+07,
2459650.500000000, A.D. 2022-Mar-12 00:00:00.0000, -1.039769899494154E+08, 4.174675634874942E+08, -5.736113986403370E+07,
2459657.500000000, A.D. 2022-Mar-19 00:00:00.0000, -1.141743659107817E+08, 4.152345922855405E+08, -5.538284444485117E+07,
2459664.500000000, A.D. 2022-Mar-26 00:00:00.0000, -1.243040700239975E+08, 4.127553823842053E+08, -5.337170213008061E+07,
2459671.500000000, A.D. 2022-Apr-02 00:00:00.0000, -1.343601821715844E+08, 4.100316860570394E+08, -5.132894182934098E+07,
2459678.500000000, A.D. 2022-Apr-09 00:00:00.0000, -1.443368407696161E+08, 4.070653990824195E+08, -4.925580891598098E+07,
2459685.500000000, A.D. 2022-Apr-16 00:00:00.0000, -1.542282451565852E+08, 4.038585589588017E+08, -4.715356444294436E+07,
2459692.500000000, A.D. 2022-Apr-23 00:00:00.0000, -1.640286584687205E+08, 4.004133446403841E+08, -4.502348417334844E+07,
2459699.500000000, A.D. 2022-Apr-30 00:00:00.0000, -1.737324128685330E+08, 3.967320755521985E+08, -4.286685743889071E+07,
2459706.500000000, A.D. 2022-May-07 00:00:00.0000, -1.833339140604261E+08, 3.928172079111083E+08, -4.068498626819490E+07,
2459713.500000000, A.D. 2022-May-14 00:00:00.0000, -1.928276437047372E+08, 3.886713313930066E+08, -3.847918466494916E+07,
2459720.500000000, A.D. 2022-May-21 00:00:00.0000, -2.022081617608296E+08, 3.842971669108442E+08, -3.625077778915425E+07,
2459727.500000000, A.D. 2022-May-28 00:00:00.0000, -2.114701092355913E+08, 3.796975645485640E+08, -3.400110107676195E+07,
2459734.500000000, A.D. 2022-Jun-04 00:00:00.0000, -2.206082110584997E+08, 3.748755013407478E+08, -3.173149934920512E+07,
2459741.500000000, A.D. 2022-Jun-11 00:00:00.0000, -2.296172789374821E+08, 3.698340789031310E+08, -2.944332592651917E+07,
2459748.500000000, A.D. 2022-Jun-18 00:00:00.0000, -2.384922141559560E+08, 3.645765209305502E+08, -2.713794174716562E+07,
2459755.500000000, A.D. 2022-Jun-25 00:00:00.0000, -2.472280102807565E+08, 3.591061705325280E+08, -2.481671450058936E+07,
2459762.500000000, A.D. 2022-Jul-02 00:00:00.0000, -2.558197556461236E+08, 3.534264873440490E+08, -2.248101779073395E+07,
2459769.500000000, A.D. 2022-Jul-09 00:00:00.0000, -2.642626352228732E+08, 3.475410445915637E+08, -2.013223035234132E+07,
2459776.500000000, A.D. 2022-Jul-16 00:00:00.0000, -2.725519319280900E+08, 3.414535272001095E+08, -1.777173522700305E+07,
2459783.500000000, A.D. 2022-Jul-23 00:00:00.0000, -2.806830295747913E+08, 3.351677310237229E+08, -1.540091869169603E+07,
2459790.500000000, A.D. 2022-Jul-30 00:00:00.0000, -2.886514173764038E+08, 3.286875598499452E+08, -1.302116922207998E+07,
2459797.500000000, A.D. 2022-Aug-06 00:00:00.0000, -2.964526924049980E+08, 3.220170208272107E+08, -1.063387676743758E+07,
2459804.500000000, A.D. 2022-Aug-13 00:00:00.0000, -3.040825608285666E+08, 3.151602210711390E+08, -8.240432036910668E+06,
2459811.500000000, A.D. 2022-Aug-20 00:00:00.0000, -3.115368394989279E+08, 3.081213649517249E+08, -5.842225694924563E+06,
2459818.500000000, A.D. 2022-Aug-27 00:00:00.0000, -3.188114578217768E+08, 3.009047513395245E+08, -3.440647531699866E+06,
2459825.500000000, A.D. 2022-Sep-03 00:00:00.0000, -3.259024596598502E+08, 2.935147707035444E+08, -1.037085640687391E+06,
2459832.500000000, A.D. 2022-Sep-10 00:00:00.0000, -3.328060051775940E+08, 2.859559020872011E+08, 1.367074390691742E+06,
2459839.500000000, A.D. 2022-Sep-17 00:00:00.0000, -3.395183725962209E+08, 2.782327099619185E+08, 3.770450274003342E+06,
2459846.500000000, A.D. 2022-Sep-24 00:00:00.0000, -3.460359597979277E+08, 2.703498409076896E+08, 6.171663786427677E+06,
2459853.500000000, A.D. 2022-Oct-01 00:00:00.0000, -3.523552855403691E+08, 2.623120200985023E+08, 8.569341486655965E+06,
2459860.500000000, A.D. 2022-Oct-08 00:00:00.0000, -3.584729898768641E+08, 2.541240481161382E+08, 1.096211538461758E+07,
2459867.500000000, A.D. 2022-Oct-15 00:00:00.0000, -3.643858347179730E+08, 2.457907992946770E+08, 1.334862374770822E+07,
2459874.500000000, A.D. 2022-Oct-22 00:00:00.0000, -3.700907067200046E+08, 2.373172199171573E+08, 1.572751210528730E+07,
2459881.500000000, A.D. 2022-Oct-29 00:00:00.0000, -3.755846200029880E+08, 2.287083236766377E+08, 1.809743400995576E+07,
2459888.500000000, A.D. 2022-Nov-05 00:00:00.0000, -3.808647165961034E+08, 2.199691871442337E+08, 2.045705158681729E+07,
2459895.500000000, A.D. 2022-Nov-12 00:00:00.0000, -3.859282665763882E+08, 2.111049465115623E+08, 2.280503615405741E+07,
2459902.500000000, A.D. 2022-Nov-19 00:00:00.0000, -3.907726686225520E+08, 2.021207946561530E+08, 2.514006890240647E+07,
2459909.500000000, A.D. 2022-Nov-26 00:00:00.0000, -3.953954507224935E+08, 1.930219781351242E+08, 2.746084157669528E+07,
2459916.500000000, A.D. 2022-Dec-03 00:00:00.0000, -3.997942708689088E+08, 1.838137940972427E+08, 2.976605714312546E+07,
2459923.500000000, A.D. 2022-Dec-10 00:00:00.0000, -4.039669176982977E+08, 1.745015871334438E+08, 3.205443043942630E+07,
2459930.500000000, A.D. 2022-Dec-17 00:00:00.0000, -4.079113110497680E+08, 1.650907460422838E+08, 3.432468880344726E+07,
2459937.500000000, A.D. 2022-Dec-24 00:00:00.0000, -4.116255023354408E+08, 1.555867004460177E+08, 3.657557266467523E+07,
2459944.500000000, A.D. 2022-Dec-31 00:00:00.0000, -4.151076743658949E+08, 1.459949173662799E+08, 3.880583607458908E+07,
2459951.500000000, A.D. 2023-Jan-07 00:00:00.0000, -4.183561405089146E+08, 1.363208987228985E+08, 4.101424724317037E+07,
2459958.500000000, A.D. 2023-Jan-14 00:00:00.0000, -4.213693451504605E+08, 1.265701802534509E+08, 4.319958930256584E+07,
2459965.500000000, A.D. 2023-Jan-21 00:00:00.0000, -4.241458661060767E+08, 1.167483286828473E+08, 4.536066109798630E+07,
2459972.500000000, A.D. 2023-Jan-28 00:00:00.0000, -4.266844153159689E+08, 1.068609369505285E+08, 4.749627765371171E+07,
2459979.500000000, A.D. 2023-Feb-04 00:00:00.0000, -4.289838380308762E+08, 9.691362052380630E+07, 4.960527058069271E+07,
2459986.500000000, A.D. 2023-Feb-11 00:00:00.0000, -4.310431122853920E+08, 8.691201460333478E+07, 5.168648857457317E+07,
2459993.500000000, A.D. 2023-Feb-18 00:00:00.0000, -4.328613487251680E+08, 7.686177139903463E+07, 5.373879794298171E+07,
2460000.500000000, A.D. 2023-Feb-25 00:00:00.0000, -4.344377905269558E+08, 6.676855731706297E+07, 5.576108312511812E+07,
2460007.500000000, A.D. 2023-Mar-04 00:00:00.0000, -4.357718133098437E+08, 5.663805007856406E+07, 5.775224719598646E+07,
2460014.500000000, A.D. 2023-Mar-11 00:00:00.0000, -4.368629250092767E+08, 4.647593577213322E+07, 5.971121235274100E+07,
2460021.500000000, A.D. 2023-Mar-18 00:00:00.0000, -4.377107656669478E+08, 3.628790579155868E+07, 6.163692037473458E+07,
2460028.500000000, A.D. 2023-Mar-25 00:00:00.0000, -4.383151069334671E+08, 2.607965361227540E+07, 6.352833303467298E+07,
2460035.500000000, A.D. 2023-Apr-01 00:00:00.0000, -4.386758508596679E+08, 1.585687180014142E+07, 6.538443245402063E+07,
2460042.500000000, A.D. 2023-Apr-08 00:00:00.0000, -4.387930285927185E+08, 5.625250477189209E+06, 6.720422155923986E+07,
2460049.500000000, A.D. 2023-Apr-15 00:00:00.0000, -4.386668013164750E+08, -4.609523862642244E+06, 6.898672476320437E+07,
2460056.500000000, A.D. 2023-Apr-22 00:00:00.0000, -4.382974616313936E+08, -1.484177223943608E+07, 7.073098845743240E+07,
2460063.500000000, A.D. 2023-Apr-29 00:00:00.0000, -4.376854326416031E+08, -2.506582751970003E+07, 7.243608124927941E+07,
2460070.500000000, A.D. 2023-May-06 00:00:00.0000, -4.368312665092173E+08, -3.527603741244276E+07, 7.410109425124104E+07,
2460077.500000000, A.D. 2023-May-13 00:00:00.0000, -4.357356434535462E+08, -4.546676702195841E+07, 7.572514143894404E+07,
2460084.500000000, A.D. 2023-May-20 00:00:00.0000, -4.343993709627138E+08, -5.563240144702139E+07, 7.730736001627731E+07,
2460091.500000000, A.D. 2023-May-27 00:00:00.0000, -4.328233830242261E+08, -6.576734845396482E+07, 7.884691076710455E+07,
2460098.500000000, A.D. 2023-Jun-03 00:00:00.0000, -4.310087393155008E+08, -7.586604119683664E+07, 8.034297838946956E+07,
2460105.500000000, A.D. 2023-Jun-10 00:00:00.0000, -4.289566243296446E+08, -8.592294099929130E+07, 8.179477180809242E+07,
2460112.500000000, A.D. 2023-Jun-17 00:00:00.0000, -4.266683463483562E+08, -9.593254026003209E+07, 8.320152445176712E+07,
2460119.500000000, A.D. 2023-Jun-24 00:00:00.0000, -4.241453359445084E+08, -1.058893654273101E+08, 8.456249447117326E+07,
2460126.500000000, A.D. 2023-Jul-01 00:00:00.0000, -4.213891437639453E+08, -1.157879792142185E+08, 8.587696494205832E+07,
2460133.500000000, A.D. 2023-Jul-08 00:00:00.0000, -4.184014392621248E+08, -1.256229812319748E+08, 8.714424427474575E+07,
2460140.500000000, A.D. 2023-Jul-15 00:00:00.0000, -4.151840116739942E+08, -1.353890098708599E+08, 8.836366671603966E+07,
2460147.500000000, A.D. 2023-Jul-22 00:00:00.0000, -4.117387696981408E+08, -1.450807464628094E+08, 8.953459253655535E+07,
$$EOE